<?xml version="1.0" encoding="UTF-8"?>
<ndm xmlns:xsi="http://www.w3.org/2001/XMLSchema-instance" xsi:noNamespaceSchemaLocation="https://sanaregistry.org/r/ndmxml_unqualified/ndmxml-2.0.0-master-2.0.xsd">
<omm id="CCSDS_OMM_VERS" version="2.0">
<header><CREATION_DATE/><ORIGINATOR/></header><body><segment><metadata><OBJECT_NAME>ORBCOMM FM20 [+]</OBJECT_NAME><OBJECT_ID>1998-046D</OBJECT_ID><CENTER_NAME>EARTH</CENTER_NAME><REF_FRAME>TEME</REF_FRAME><TIME_SYSTEM>UTC</TIME_SYSTEM><MEAN_ELEMENT_THEORY>SGP4</MEAN_ELEMENT_THEORY></metadata><data><meanElements><EPOCH>2023-09-24T10:35:35.371104</EPOCH><MEAN_MOTION>14.34405099</MEAN_MOTION><ECCENTRICITY>.0002647</ECCENTRICITY><INCLINATION>44.9950</INCLINATION><RA_OF_ASC_NODE>285.8816</RA_OF_ASC_NODE><ARG_OF_PERICENTER>272.0721</ARG_OF_PERICENTER><MEAN_ANOMALY>87.9822</MEAN_ANOMALY></meanElements><tleParameters><EPHEMERIS_TYPE>0</EPHEMERIS_TYPE><CLASSIFICATION_TYPE>U</CLASSIFICATION_TYPE><NORAD_CAT_ID>25416</NORAD_CAT_ID><ELEMENT_SET_NO>999</ELEMENT_SET_NO><REV_AT_EPOCH>31347</REV_AT_EPOCH><BSTAR>.49606E-3</BSTAR><MEAN_MOTION_DOT>.1268E-4</MEAN_MOTION_DOT><MEAN_MOTION_DDOT>0</MEAN_MOTION_DDOT></tleParameters></data></segment></body></omm>
<omm id="CCSDS_OMM_VERS" version="2.0">
<header><CREATION_DATE/><ORIGINATOR/></header><body><segment><metadata><OBJECT_NAME>ORBCOMM FM16 [-]</OBJECT_NAME><OBJECT_ID>1998-046E</OBJECT_ID><CENTER_NAME>EARTH</CENTER_NAME><REF_FRAME>TEME</REF_FRAME><TIME_SYSTEM>UTC</TIME_SYSTEM><MEAN_ELEMENT_THEORY>SGP4</MEAN_ELEMENT_THEORY></metadata><data><meanElements><EPOCH>2023-09-24T12:45:29.943648</EPOCH><MEAN_MOTION>14.35076418</MEAN_MOTION><ECCENTRICITY>.0004496</ECCENTRICITY><INCLINATION>44.9940</INCLINATION><RA_OF_ASC_NODE>282.6737</RA_OF_ASC_NODE><ARG_OF_PERICENTER>330.1879</ARG_OF_PERICENTER><MEAN_ANOMALY>29.8711</MEAN_ANOMALY></meanElements><tleParameters><EPHEMERIS_TYPE>0</EPHEMERIS_TYPE><CLASSIFICATION_TYPE>U</CLASSIFICATION_TYPE><NORAD_CAT_ID>25417</NORAD_CAT_ID><ELEMENT_SET_NO>999</ELEMENT_SET_NO><REV_AT_EPOCH>31340</REV_AT_EPOCH><BSTAR>.78913E-3</BSTAR><MEAN_MOTION_DOT>.2131E-4</MEAN_MOTION_DOT><MEAN_MOTION_DDOT>0</MEAN_MOTION_DDOT></tleParameters></data></segment></body></omm>
<omm id="CCSDS_OMM_VERS" version="2.0">
<header><CREATION_DATE/><ORIGINATOR/></header><body><segment><metadata><OBJECT_NAME>ORBCOMM FM15 [-]</OBJECT_NAME><OBJECT_ID>1998-046F</OBJECT_ID><CENTER_NAME>EARTH</CENTER_NAME><REF_FRAME>TEME</REF_FRAME><TIME_SYSTEM>UTC</TIME_SYSTEM><MEAN_ELEMENT_THEORY>SGP4</MEAN_ELEMENT_THEORY></metadata><data><meanElements><EPOCH>2023-09-24T12:24:42.208416</EPOCH><MEAN_MOTION>14.34842584</MEAN_MOTION><ECCENTRICITY>.0003925</ECCENTRICITY><INCLINATION>44.9980</INCLINATION><RA_OF_ASC_NODE>286.2965</RA_OF_ASC_NODE><ARG_OF_PERICENTER>328.8283</ARG_OF_PERICENTER><MEAN_ANOMALY>31.2330</MEAN_ANOMALY></meanElements><tleParameters><EPHEMERIS_TYPE>0</EPHEMERIS_TYPE><CLASSIFICATION_TYPE>U</CLASSIFICATION_TYPE><NORAD_CAT_ID>25418</NORAD_CAT_ID><ELEMENT_SET_NO>999</ELEMENT_SET_NO><REV_AT_EPOCH>31341</REV_AT_EPOCH><BSTAR>.68113E-3</BSTAR><MEAN_MOTION_DOT>.1811E-4</MEAN_MOTION_DOT><MEAN_MOTION_DDOT>0</MEAN_MOTION_DDOT></tleParameters></data></segment></body></omm>
<omm id="CCSDS_OMM_VERS" version="2.0">
<header><CREATION_DATE/><ORIGINATOR/></header><body><segment><metadata><OBJECT_NAME>ORBCOMM FM14 [-]</OBJECT_NAME><OBJECT_ID>1998-046G</OBJECT_ID><CENTER_NAME>EARTH</CENTER_NAME><REF_FRAME>TEME</REF_FRAME><TIME_SYSTEM>UTC</TIME_SYSTEM><MEAN_ELEMENT_THEORY>SGP4</MEAN_ELEMENT_THEORY></metadata><data><meanElements><EPOCH>2023-09-24T10:49:49.764288</EPOCH><MEAN_MOTION>14.34943677</MEAN_MOTION><ECCENTRICITY>.000363</ECCENTRICITY><INCLINATION>44.9966</INCLINATION><RA_OF_ASC_NODE>285.9713</RA_OF_ASC_NODE><ARG_OF_PERICENTER>308.2612</ARG_OF_PERICENTER><MEAN_ANOMALY>194.1958</MEAN_ANOMALY></meanElements><tleParameters><EPHEMERIS_TYPE>0</EPHEMERIS_TYPE><CLASSIFICATION_TYPE>U</CLASSIFICATION_TYPE><NORAD_CAT_ID>25419</NORAD_CAT_ID><ELEMENT_SET_NO>999</ELEMENT_SET_NO><REV_AT_EPOCH>31335</REV_AT_EPOCH><BSTAR>.66769E-3</BSTAR><MEAN_MOTION_DOT>.1776E-4</MEAN_MOTION_DOT><MEAN_MOTION_DDOT>0</MEAN_MOTION_DDOT></tleParameters></data></segment></body></omm>
<omm id="CCSDS_OMM_VERS" version="2.0">
<header><CREATION_DATE/><ORIGINATOR/></header><body><segment><metadata><OBJECT_NAME>ORBCOMM FM13 [+]</OBJECT_NAME><OBJECT_ID>1998-046H</OBJECT_ID><CENTER_NAME>EARTH</CENTER_NAME><REF_FRAME>TEME</REF_FRAME><TIME_SYSTEM>UTC</TIME_SYSTEM><MEAN_ELEMENT_THEORY>SGP4</MEAN_ELEMENT_THEORY></metadata><data><meanElements><EPOCH>2023-09-24T12:14:08.779776</EPOCH><MEAN_MOTION>14.34423485</MEAN_MOTION><ECCENTRICITY>.0005401</ECCENTRICITY><INCLINATION>44.9983</INCLINATION><RA_OF_ASC_NODE>289.4576</RA_OF_ASC_NODE><ARG_OF_PERICENTER>323.6100</ARG_OF_PERICENTER><MEAN_ANOMALY>36.4378</MEAN_ANOMALY></meanElements><tleParameters><EPHEMERIS_TYPE>0</EPHEMERIS_TYPE><CLASSIFICATION_TYPE>U</CLASSIFICATION_TYPE><NORAD_CAT_ID>25420</NORAD_CAT_ID><ELEMENT_SET_NO>999</ELEMENT_SET_NO><REV_AT_EPOCH>31244</REV_AT_EPOCH><BSTAR>.60237E-3</BSTAR><MEAN_MOTION_DOT>.1571E-4</MEAN_MOTION_DOT><MEAN_MOTION_DDOT>0</MEAN_MOTION_DDOT></tleParameters></data></segment></body></omm>
<omm id="CCSDS_OMM_VERS" version="2.0">
<header><CREATION_DATE/><ORIGINATOR/></header><body><segment><metadata><OBJECT_NAME>ORBCOMM FM21 [-]</OBJECT_NAME><OBJECT_ID>1998-053A</OBJECT_ID><CENTER_NAME>EARTH</CENTER_NAME><REF_FRAME>TEME</REF_FRAME><TIME_SYSTEM>UTC</TIME_SYSTEM><MEAN_ELEMENT_THEORY>SGP4</MEAN_ELEMENT_THEORY></metadata><data><meanElements><EPOCH>2023-09-24T09:19:33.761280</EPOCH><MEAN_MOTION>14.34450779</MEAN_MOTION><ECCENTRICITY>.0001707</ECCENTRICITY><INCLINATION>45.0107</INCLINATION><RA_OF_ASC_NODE>14.1166</RA_OF_ASC_NODE><ARG_OF_PERICENTER>232.2030</ARG_OF_PERICENTER><MEAN_ANOMALY>127.8663</MEAN_ANOMALY></meanElements><tleParameters><EPHEMERIS_TYPE>0</EPHEMERIS_TYPE><CLASSIFICATION_TYPE>U</CLASSIFICATION_TYPE><NORAD_CAT_ID>25475</NORAD_CAT_ID><ELEMENT_SET_NO>999</ELEMENT_SET_NO><REV_AT_EPOCH>30644</REV_AT_EPOCH><BSTAR>.64483E-3</BSTAR><MEAN_MOTION_DOT>.1692E-4</MEAN_MOTION_DOT><MEAN_MOTION_DDOT>0</MEAN_MOTION_DDOT></tleParameters></data></segment></body></omm>
<omm id="CCSDS_OMM_VERS" version="2.0">
<header><CREATION_DATE/><ORIGINATOR/></header><body><segment><metadata><OBJECT_NAME>ORBCOMM FM22 [-]</OBJECT_NAME><OBJECT_ID>1998-053B</OBJECT_ID><CENTER_NAME>EARTH</CENTER_NAME><REF_FRAME>TEME</REF_FRAME><TIME_SYSTEM>UTC</TIME_SYSTEM><MEAN_ELEMENT_THEORY>SGP4</MEAN_ELEMENT_THEORY></metadata><data><meanElements><EPOCH>2023-09-24T08:46:54.824448</EPOCH><MEAN_MOTION>14.34804445</MEAN_MOTION><ECCENTRICITY>.0003042</ECCENTRICITY><INCLINATION>45.0097</INCLINATION><RA_OF_ASC_NODE>12.2806</RA_OF_ASC_NODE><ARG_OF_PERICENTER>260.9489</ARG_OF_PERICENTER><MEAN_ANOMALY>99.1014</MEAN_ANOMALY></meanElements><tleParameters><EPHEMERIS_TYPE>0</EPHEMERIS_TYPE><CLASSIFICATION_TYPE>U</CLASSIFICATION_TYPE><NORAD_CAT_ID>25476</NORAD_CAT_ID><ELEMENT_SET_NO>999</ELEMENT_SET_NO><REV_AT_EPOCH>30642</REV_AT_EPOCH><BSTAR>.66132E-3</BSTAR><MEAN_MOTION_DOT>.1752E-4</MEAN_MOTION_DOT><MEAN_MOTION_DDOT>0</MEAN_MOTION_DDOT></tleParameters></data></segment></body></omm>
<omm id="CCSDS_OMM_VERS" version="2.0">
<header><CREATION_DATE/><ORIGINATOR/></header><body><segment><metadata><OBJECT_NAME>ORBCOMM FM23 [-]</OBJECT_NAME><OBJECT_ID>1998-053C</OBJECT_ID><CENTER_NAME>EARTH</CENTER_NAME><REF_FRAME>TEME</REF_FRAME><TIME_SYSTEM>UTC</TIME_SYSTEM><MEAN_ELEMENT_THEORY>SGP4</MEAN_ELEMENT_THEORY></metadata><data><meanElements><EPOCH>2023-09-24T13:22:23.236896</EPOCH><MEAN_MOTION>14.34426851</MEAN_MOTION><ECCENTRICITY>.0002463</ECCENTRICITY><INCLINATION>45.0102</INCLINATION><RA_OF_ASC_NODE>15.7594</RA_OF_ASC_NODE><ARG_OF_PERICENTER>252.9222</ARG_OF_PERICENTER><MEAN_ANOMALY>107.1356</MEAN_ANOMALY></meanElements><tleParameters><EPHEMERIS_TYPE>0</EPHEMERIS_TYPE><CLASSIFICATION_TYPE>U</CLASSIFICATION_TYPE><NORAD_CAT_ID>25477</NORAD_CAT_ID><ELEMENT_SET_NO>999</ELEMENT_SET_NO><REV_AT_EPOCH>30661</REV_AT_EPOCH><BSTAR>.73194E-3</BSTAR><MEAN_MOTION_DOT>.1939E-4</MEAN_MOTION_DOT><MEAN_MOTION_DDOT>0</MEAN_MOTION_DDOT></tleParameters></data></segment></body></omm>

</ndm>
