ORBCOMM FM20 [+]        
1 25416U 98046D   23267.44138161  .00001268  00000+0  49606-3 0  9997
2 25416  44.9950 285.8816 0002647 272.0721  87.9822 14.34405099313472
ORBCOMM FM16 [-]        
1 25417U 98046E   23267.53159657  .00002131  00000+0  78913-3 0  9994
2 25417  44.9940 282.6737 0004496 330.1879  29.8711 14.35076418313408
ORBCOMM FM15 [-]        
1 25418U 98046F   23267.51715519  .00001811  00000+0  68113-3 0  9993
2 25418  44.9980 286.2965 0003925 328.8283  31.2330 14.34842584313414
ORBCOMM FM14 [-]        
1 25419U 98046G   23267.45127042  .00001776  00000+0  66769-3 0  9990
2 25419  44.9966 285.9713 0003630 308.2612 194.1958 14.34943677313350
ORBCOMM FM13 [+]        
1 25420U 98046H   23267.50982384  .00001571  00000+0  60237-3 0  9993
2 25420  44.9983 289.4576 0005401 323.6100  36.4378 14.34423485312441
ORBCOMM FM21 [-]        
1 25475U 98053A   23267.38858520  .00001692  00000+0  64483-3 0  9992
2 25475  45.0107  14.1166 0001707 232.2030 127.8663 14.34450779306442
ORBCOMM FM22 [-]        
1 25476U 98053B   23267.36591232  .00001752  00000+0  66132-3 0  9995
2 25476  45.0097  12.2806 0003042 260.9489  99.1014 14.34804445306423
ORBCOMM FM23 [-]        
1 25477U 98053C   23267.55721339  .00001939  00000+0  73194-3 0  9993
2 25477  45.0102  15.7594 0002463 252.9222 107.1356 14.34426851306616
